[{"OBJECT_NAME":"ONEWEB-0064","OBJECT_ID":"2020-020K","EPOCH":"2026-03-09T22:09:59.713056","MEAN_MOTION":13.11414825,"ECCENTRICITY":0.00020093,"INCLINATION":87.8857,"RA_OF_ASC_NODE":40.8048,"ARG_OF_PERICENTER":83.4094,"MEAN_ANOMALY":276.7262,"EPHEMERIS_TYPE":0,"CLASSIFICATION_TYPE":"U","NORAD_CAT_ID":45433,"ELEMENT_SET_NO":999,"REV_AT_EPOCH":28967,"BSTAR":0.00054576266,"MEAN_MOTION_DOT":2.06e-6,"MEAN_MOTION_DDOT":0},{"OBJECT_NAME":"DELTA 1 DEB","OBJECT_ID":"1975-052AY","EPOCH":"2026-03-09T15:53:26.287584","MEAN_MOTION":13.33894936,"ECCENTRICITY":0.0305456,"INCLINATION":99.9779,"RA_OF_ASC_NODE":321.8937,"ARG_OF_PERICENTER":211.2329,"MEAN_ANOMALY":205.1852,"EPHEMERIS_TYPE":0,"CLASSIFICATION_TYPE":"U","NORAD_CAT_ID":21330,"ELEMENT_SET_NO":999,"REV_AT_EPOCH":69201,"BSTAR":0.00053188,"MEAN_MOTION_DOT":2.99e-6,"MEAN_MOTION_DDOT":0}]
